{
  "type": "FeatureCollection",
  "features": [
    {
      "type": "Feature",
      "properties": {
        "norad_id": 34010,
        "name": "COSMOS 2251 DEB",
        "group": "cosmos-2251-debris",
        "lat": 26.038644340534763,
        "lon": 111.66079730931277,
        "alt_km": 515.1467372193756,
        "timestamp": "2025-12-04T21:36:16.265208+00:00",
        "meta_object_name": "COSMOS 2251 DEB",
        "meta_object_id": "1993-036GV",
        "meta_epoch": "2025-12-04T08:16:05.405664",
        "meta_mean_motion": 15.16471738,
        "meta_eccentricity": 0.0004403,
        "meta_inclination": 74,
        "meta_ra_of_asc_node": 300.8804,
        "meta_arg_of_pericenter": 56.5952,
        "meta_mean_anomaly": 303.5664,
        "meta_ephemeris_type": 0,
        "meta_classification_type": "U",
        "meta_norad_cat_id": 34010,
        "meta_element_set_no": 999,
        "meta_rev_at_epoch": 89158,
        "meta_bstar": 0.008855955,
        "meta_mean_motion_dot": 0.00176726,
        "meta_mean_motion_ddot": 0,
        "tle_line1": "1 34010U 93036GV  25338.34450701  .00176726  00000+0  88560-2 0  9991",
        "tle_line2": "2 34010  74.0000 300.8804 0004403  56.5952 303.5664 15.16471738891588"
      },
      "geometry": {
        "type": "Point",
        "coordinates": [
          111.66079730931277,
          26.038644340534763
        ]
      }
    },
    {
      "type": "Feature",
      "properties": {
        "norad_id": 34011,
        "name": "COSMOS 2251 DEB",
        "group": "cosmos-2251-debris",
        "lat": -73.40292250050611,
        "lon": -121.19943766967928,
        "alt_km": 784.1018137042665,
        "timestamp": "2025-12-04T21:36:16.265218+00:00",
        "meta_object_name": "COSMOS 2251 DEB",
        "meta_object_id": "1993-036GW",
        "meta_epoch": "2025-12-04T10:23:09.489408",
        "meta_mean_motion": 14.41708458,
        "meta_eccentricity": 0.00352193,
        "meta_inclination": 74.0144,
        "meta_ra_of_asc_node": 345.5636,
        "meta_arg_of_pericenter": 71.8792,
        "meta_mean_anomaly": 288.6195,
        "meta_ephemeris_type": 0,
        "meta_classification_type": "U",
        "meta_norad_cat_id": 34011,
        "meta_element_set_no": 999,
        "meta_rev_at_epoch": 87796,
        "meta_bstar": 0.0015576285,
        "meta_mean_motion_dot": 5.095e-05,
        "meta_mean_motion_ddot": 0,
        "tle_line1": "1 34011U 93036GW  25338.43274872  .00005095  00000+0  15576-2 0  9992",
        "tle_line2": "2 34011  74.0144 345.5636 0035219  71.8792 288.6195 14.41708458877965"
      },
      "geometry": {
        "type": "Point",
        "coordinates": [
          -121.19943766967928,
          -73.40292250050611
        ]
      }
    },
    {
      "type": "Feature",
      "properties": {
        "norad_id": 34014,
        "name": "COSMOS 2251 DEB",
        "group": "cosmos-2251-debris",
        "lat": 37.537375610737996,
        "lon": -51.261404257982946,
        "alt_km": 628.2150447522617,
        "timestamp": "2025-12-04T21:36:16.265228+00:00",
        "meta_object_name": "COSMOS 2251 DEB",
        "meta_object_id": "1993-036GZ",
        "meta_epoch": "2025-12-04T07:18:11.252160",
        "meta_mean_motion": 14.72964202,
        "meta_eccentricity": 0.00367644,
        "meta_inclination": 74.0173,
        "meta_ra_of_asc_node": 297.1782,
        "meta_arg_of_pericenter": 79.1608,
        "meta_mean_anomaly": 41.9942,
        "meta_ephemeris_type": 0,
        "meta_classification_type": "U",
        "meta_norad_cat_id": 34014,
        "meta_element_set_no": 999,
        "meta_rev_at_epoch": 89179,
        "meta_bstar": 0.0023991166,
        "meta_mean_motion_dot": 0.00015567,
        "meta_mean_motion_ddot": 0,
        "tle_line1": "1 34014U 93036GZ  25338.30429690  .00015567  00000+0  23991-2 0  9996",
        "tle_line2": "2 34014  74.0173 297.1782 0036764  79.1608  41.9942 14.72964202891799"
      },
      "geometry": {
        "type": "Point",
        "coordinates": [
          -51.261404257982946,
          37.537375610737996
        ]
      }
    },
    {
      "type": "Feature",
      "properties": {
        "norad_id": 34015,
        "name": "COSMOS 2251 DEB",
        "group": "cosmos-2251-debris",
        "lat": 19.912332646882817,
        "lon": -11.558508970524672,
        "alt_km": 698.2980781689203,
        "timestamp": "2025-12-04T21:36:16.265238+00:00",
        "meta_object_name": "COSMOS 2251 DEB",
        "meta_object_id": "1993-036HA",
        "meta_epoch": "2025-12-04T16:15:47.772000",
        "meta_mean_motion": 14.60092366,
        "meta_eccentricity": 0.00211631,
        "meta_inclination": 74.0231,
        "meta_ra_of_asc_node": 174.8233,
        "meta_arg_of_pericenter": 272.1647,
        "meta_mean_anomaly": 157.8756,
        "meta_ephemeris_type": 0,
        "meta_classification_type": "U",
        "meta_norad_cat_id": 34015,
        "meta_element_set_no": 999,
        "meta_rev_at_epoch": 88413,
        "meta_bstar": 0.0028017845,
        "meta_mean_motion_dot": 0.00013512,
        "meta_mean_motion_ddot": 0,
        "tle_line1": "1 34015U 93036HA  25338.67763625  .00013512  00000+0  28018-2 0  9999",
        "tle_line2": "2 34015  74.0231 174.8233 0021163 272.1647 157.8756 14.60092366884132"
      },
      "geometry": {
        "type": "Point",
        "coordinates": [
          -11.558508970524672,
          19.912332646882817
        ]
      }
    },
    {
      "type": "Feature",
      "properties": {
        "norad_id": 34018,
        "name": "COSMOS 2251 DEB",
        "group": "cosmos-2251-debris",
        "lat": 9.30945269516593,
        "lon": 108.09802596348446,
        "alt_km": 1090.7219152478956,
        "timestamp": "2025-12-04T21:36:16.265248+00:00",
        "meta_object_name": "COSMOS 2251 DEB",
        "meta_object_id": "1993-036HD",
        "meta_epoch": "2025-12-04T14:41:17.966400",
        "meta_mean_motion": 13.810529,
        "meta_eccentricity": 0.02642024,
        "meta_inclination": 73.8769,
        "meta_ra_of_asc_node": 105.8685,
        "meta_arg_of_pericenter": 143.2907,
        "meta_mean_anomaly": 236.5547,
        "meta_ephemeris_type": 0,
        "meta_classification_type": "U",
        "meta_norad_cat_id": 34018,
        "meta_element_set_no": 999,
        "meta_rev_at_epoch": 84545,
        "meta_bstar": 0.0010638102,
        "meta_mean_motion_dot": 1.443e-05,
        "meta_mean_motion_ddot": 0,
        "tle_line1": "1 34018U 93036HD  25338.61201350  .00001443  00000+0  10638-2 0  9997",
        "tle_line2": "2 34018  73.8769 105.8685 0264202 143.2907 236.5547 13.81052900845450"
      },
      "geometry": {
        "type": "Point",
        "coordinates": [
          108.09802596348446,
          9.30945269516593
        ]
      }
    },
    {
      "type": "Feature",
      "properties": {
        "norad_id": 34019,
        "name": "COSMOS 2251 DEB",
        "group": "cosmos-2251-debris",
        "lat": 73.66740271436333,
        "lon": 144.2819961301686,
        "alt_km": 813.6603559042869,
        "timestamp": "2025-12-04T21:36:16.265259+00:00",
        "meta_object_name": "COSMOS 2251 DEB",
        "meta_object_id": "1993-036HE",
        "meta_epoch": "2025-12-04T06:25:50.562048",
        "meta_mean_motion": 14.33869907,
        "meta_eccentricity": 0.00627036,
        "meta_inclination": 73.9553,
        "meta_ra_of_asc_node": 66.319,
        "meta_arg_of_pericenter": 248.7341,
        "meta_mean_anomaly": 176.1749,
        "meta_ephemeris_type": 0,
        "meta_classification_type": "U",
        "meta_norad_cat_id": 34019,
        "meta_element_set_no": 999,
        "meta_rev_at_epoch": 87399,
        "meta_bstar": 0.0021845265,
        "meta_mean_motion_dot": 6.197e-05,
        "meta_mean_motion_ddot": 0,
        "tle_line1": "1 34019U 93036HE  25338.26794632  .00006197  00000+0  21845-2 0  9992",
        "tle_line2": "2 34019  73.9553  66.3190 0062703 248.7341 176.1749 14.33869907873994"
      },
      "geometry": {
        "type": "Point",
        "coordinates": [
          144.2819961301686,
          73.66740271436333
        ]
      }
    },
    {
      "type": "Feature",
      "properties": {
        "norad_id": 34021,
        "name": "COSMOS 2251 DEB",
        "group": "cosmos-2251-debris",
        "lat": 73.29836768407456,
        "lon": -108.02943850769186,
        "alt_km": 732.8659102816919,
        "timestamp": "2025-12-04T21:36:16.265279+00:00",
        "meta_object_name": "COSMOS 2251 DEB",
        "meta_object_id": "1993-036HG",
        "meta_epoch": "2025-12-04T11:22:53.599008",
        "meta_mean_motion": 14.49901335,
        "meta_eccentricity": 0.00207462,
        "meta_inclination": 74.0346,
        "meta_ra_of_asc_node": 145.347,
        "meta_arg_of_pericenter": 290.1488,
        "meta_mean_anomaly": 102.2802,
        "meta_ephemeris_type": 0,
        "meta_classification_type": "U",
        "meta_norad_cat_id": 34021,
        "meta_element_set_no": 999,
        "meta_rev_at_epoch": 88510,
        "meta_bstar": 0.00082704116,
        "meta_mean_motion_dot": 3.179e-05,
        "meta_mean_motion_ddot": 0,
        "tle_line1": "1 34021U 93036HG  25338.47423147  .00003179  00000+0  82704-3 0  9997",
        "tle_line2": "2 34021  74.0346 145.3470 0020746 290.1488 102.2802 14.49901335885107"
      },
      "geometry": {
        "type": "Point",
        "coordinates": [
          -108.02943850769186,
          73.29836768407456
        ]
      }
    }
  ]
}